{
  "links" : {
    "next" : "https://api.nasa.gov/neo/rest/v1/feed?start_date=2010-01-23&end_date=2010-01-23&detailed=true&api_key=t0TVs3DtDT2H8Oy2Zy8m2eVrNsAVKAexjcZXUckd",
    "prev" : "https://api.nasa.gov/neo/rest/v1/feed?start_date=2010-01-21&end_date=2010-01-21&detailed=true&api_key=t0TVs3DtDT2H8Oy2Zy8m2eVrNsAVKAexjcZXUckd",
    "self" : "https://api.nasa.gov/neo/rest/v1/feed?start_date=2010-01-22&end_date=2010-01-22&detailed=true&api_key=t0TVs3DtDT2H8Oy2Zy8m2eVrNsAVKAexjcZXUckd"
  },
  "element_count" : 7,
  "near_earth_objects" : {
    "2010-01-22" : [ {
      "links" : {
        "self" : "https://api.nasa.gov/neo/rest/v1/neo/3708362?api_key=t0TVs3DtDT2H8Oy2Zy8m2eVrNsAVKAexjcZXUckd"
      },
      "neo_reference_id" : "3708362",
      "name" : "(2015 BN509)",
      "nasa_jpl_url" : "http://ssd.jpl.nasa.gov/sbdb.cgi?sstr=3708362",
      "absolute_magnitude_h" : 20.7,
      "estimated_diameter" : {
        "kilometers" : {
          "estimated_diameter_min" : 0.1925550782,
          "estimated_diameter_max" : 0.4305662442
        },
        "meters" : {
          "estimated_diameter_min" : 192.5550781879,
          "estimated_diameter_max" : 430.566244241
        },
        "miles" : {
          "estimated_diameter_min" : 0.1196481415,
          "estimated_diameter_max" : 0.2675413778
        },
        "feet" : {
          "estimated_diameter_min" : 631.7424027221,
          "estimated_diameter_max" : 1412.6189567557
        }
      },
      "is_potentially_hazardous_asteroid" : true,
      "close_approach_data" : [ {
        "close_approach_date" : "2010-01-22",
        "epoch_date_close_approach" : 1264147200000,
        "relative_velocity" : {
          "kilometers_per_second" : "32.7351689828",
          "kilometers_per_hour" : "117846.608338179",
          "miles_per_hour" : "73225.2994976869"
        },
        "miss_distance" : {
          "astronomical" : "0.450477445",
          "lunar" : "175.2357330322",
          "kilometers" : "67390472",
          "miles" : "41874496"
        },
        "orbiting_body" : "Earth"
      } ],
      "orbital_data" : {
        "orbit_id" : "49",
        "orbit_determination_date" : "2017-09-15 06:22:22",
        "orbit_uncertainty" : "0",
        "minimum_orbit_intersection" : ".0247463",
        "jupiter_tisserand_invariant" : "5.893",
        "epoch_osculation" : "2458000.5",
        "eccentricity" : ".5684761302700544",
        "semi_major_axis" : "1.006096153658969",
        "inclination" : "4.171720815829707",
        "ascending_node_longitude" : "120.2201070193547",
        "orbital_period" : "368.601976710098",
        "perihelion_distance" : ".4341545055473321",
        "perihelion_argument" : "143.1647508662946",
        "aphelion_distance" : "1.578037801770605",
        "perihelion_time" : "2457848.460001445024",
        "mean_anomaly" : "148.4918772501308",
        "mean_motion" : ".9766632377100261",
        "equinox" : "J2000"
      }
    } ]
  }
}